{"type":"FeatureCollection","features":[{"type":"Feature","geometry":{"type":"Polygon","coordinates":[[[47.1306,-18.7367],[47.4767,-19.1557],[47.3389,-19.3186],[46.7877,-19.2559],[46.1613,-19.4438],[46.7626,-18.7047],[47.1306,-18.7367]]]},"properties":{"name":"Itasy","admin_level":"4","name_official":"Itasy","region_code":"MG-itasy"},"id":"MG-TIT"},{"type":"Feature","geometry":{"type":"Polygon","coordinates":[[[45.515,-21.6668],[45.7777,-21.0351],[46.5872,-20.7467],[46.9756,-21.0474],[47.4516,-20.9847],[47.3263,-22.037],[46.9881,-22.2751],[46.5371,-22.2124],[46.3993,-21.9118],[45.515,-21.6668]]]},"properties":{"name":"Haute Matsiatra","admin_level":"4","name_official":"Haute Matsiatra","region_code":"MG-haute-matsiatra"},"id":"MG-FHM"},{"type":"Feature","geometry":{"type":"Polygon","coordinates":[[[46.9881,-22.2751],[47.2011,-23.1019],[46.8127,-23.0643],[46.8378,-23.6155],[46.4859,-23.6548],[46.4679,-23.1844],[46.2026,-22.8016],[45.8021,-22.6835],[45.0888,-23.0443],[45.0456,-22.668],[45.3178,-22.1461],[45.2318,-21.9092],[45.515,-21.6668],[46.3993,-21.9118],[46.5371,-22.2124],[46.9881,-22.2751]]]},"properties":{"name":"Ihorombe","admin_level":"4","name_official":"Ihorombe","region_code":"MG-ihorombe"},"id":"MG-FHO"},{"type":"Feature","geometry":{"type":"Polygon","coordinates":[[[47.8754,-19.5943],[48.0335,-18.3498],[47.9028,-17.9003],[48.2042,-17.1637],[47.9528,-16.7461],[47.9809,-16.2517],[48.5769,-16.4172],[48.6824,-16.7566],[48.9168,-16.6787],[48.7294,-17.5647],[48.8171,-18.1535],[48.5666,-18.2537],[48.6668,-18.9678],[48.3035,-19.7946],[47.8499,-19.7956],[47.8754,-19.5943]]]},"properties":{"name":"Alaotra-Mangoro","admin_level":"4","name_official":"Alaotra-Mangoro","region_code":"MG-alaotra-mangoro"},"id":"MG-AAO"},{"type":"Feature","geometry":{"type":"Polygon","coordinates":[[[45.7839,-19.8827],[46.7994,-20.2799],[47.3517,-20.0409],[47.7178,-20.0752],[47.7811,-20.4509],[47.4516,-20.9847],[46.9756,-21.0474],[46.5872,-20.7467],[45.7777,-21.0351],[45.7839,-19.8827]]]},"properties":{"name":"Amoron'i Mania","admin_level":"4","name_official":"Amoron'i Mania","region_code":"MG-amoron-i-mania"},"id":"MG-FAM"},{"type":"Feature","geometry":{"type":"Polygon","coordinates":[[[45.7839,-19.8827],[45.8075,-19.4522],[46.5747,-19.4188],[46.7877,-19.2559],[47.3389,-19.3186],[47.8754,-19.5943],[47.7178,-20.0752],[47.3517,-20.0409],[46.7994,-20.2799],[45.7839,-19.8827]]]},"properties":{"name":"Vakinankaratra","admin_level":"4","name_official":"Vakinankaratra","region_code":"MG-vakinankaratra"},"id":"MG-TVA"},{"type":"Feature","geometry":{"type":"Polygon","coordinates":[[[46.5908,-17.7448],[46.7102,-18.1342],[47.1306,-18.7367],[46.7626,-18.7047],[46.1613,-19.4438],[45.8364,-19.4313],[45.5019,-18.9177],[45.5748,-18.2877],[45.7703,-18.2595],[45.97,-17.8106],[46.5908,-17.7448]]]},"properties":{"name":"Bongolava","admin_level":"4","name_official":"Bongolava","region_code":"MG-bongolava"},"id":"MG-TBO"},{"type":"Feature","geometry":{"type":"Polygon","coordinates":[[[46.5908,-17.7448],[45.97,-17.8106],[45.8731,-17.4269],[45.585,-17.4269],[45.4973,-16.9759],[46.0109,-16.9885],[46.2364,-17.239],[46.5872,-16.9509],[46.7045,-16.6094],[47.3514,-16.6252],[47.3389,-16.2994],[47.9168,-16.5149],[48.2042,-17.1637],[47.9028,-17.9003],[47.2697,-17.7493],[46.5908,-17.7448]]]},"properties":{"name":"Betsiboka","admin_level":"4","name_official":"Betsiboka","region_code":"MG-betsiboka"},"id":"MG-MBE"},{"type":"Feature","geometry":{"type":"Polygon","coordinates":[[[47.9028,-17.9003],[48.0335,-18.3498],[47.8754,-19.5943],[47.5644,-19.4188],[47.3062,-18.7922],[47.1306,-18.7367],[46.7102,-18.1342],[46.5908,-17.7448],[47.2697,-17.7493],[47.9028,-17.9003]]]},"properties":{"name":"Analamanga","admin_level":"4","name_official":"Analamanga","region_code":"MG-analamanga"},"id":"MG-TAG"},{"type":"Feature","geometry":{"type":"Polygon","coordinates":[[[44.2718,-19.146],[44.0497,-18.4265],[43.9431,-17.4557],[44.4307,-16.7004],[44.4528,-16.1867],[44.8778,-16.2092],[45.0213,-16.5249],[45.4472,-16.8882],[45.585,-17.4269],[45.8731,-17.4269],[45.97,-17.8106],[45.7703,-18.2595],[45.0372,-18.1904],[44.8164,-18.3826],[45.1141,-19.2362],[44.2718,-19.146]]]},"properties":{"name":"Melaky","admin_level":"4","name_official":"Melaky","region_code":"MG-melaky"},"id":"MG-MME"},{"type":"Feature","geometry":{"type":"Polygon","coordinates":[[[43.5422,-21.3095],[43.8128,-21.2243],[43.9015,-20.8829],[44.4793,-19.9128],[44.4837,-19.5232],[44.2718,-19.146],[45.1141,-19.2362],[44.8164,-18.3826],[45.0372,-18.1904],[45.5748,-18.2877],[45.5019,-18.9177],[45.8083,-19.2321],[45.8553,-19.7679],[45.7905,-20.9291],[45.0589,-21.3606],[44.7457,-21.2729],[44.6026,-21.7709],[43.8948,-21.861],[43.5422,-21.3095]]]},"properties":{"name":"Menabe","admin_level":"4","name_official":"Menabe","region_code":"MG-menabe"},"id":"MG-UME"},{"type":"Feature","geometry":{"type":"Polygon","coordinates":[[[44.7278,-25.3036],[44.0288,-24.999],[43.7067,-24.4062],[43.6416,-23.6389],[43.758,-23.454],[43.3567,-22.8297],[43.2254,-22.2338],[43.5075,-21.3095],[43.9959,-21.9027],[44.6026,-21.7709],[44.7457,-21.2729],[45.0589,-21.3606],[45.7905,-20.9291],[45.3178,-22.1461],[45.0456,-22.668],[45.0888,-23.0443],[45.3587,-23.1153],[45.2906,-23.9221],[45.0902,-24.8867],[44.7278,-25.3036]]]},"properties":{"name":"Atsimo-Andrefana","admin_level":"4","name_official":"Atsimo-Andrefana","region_code":"MG-atsimo-andrefana"},"id":"MG-UAF"},{"type":"Feature","geometry":{"type":"Polygon","coordinates":[[[46.2376,-25.1982],[45.4922,-25.5737],[45.1361,-25.5842],[44.7278,-25.3036],[45.0902,-24.8867],[45.2906,-23.9221],[45.8481,-24.1041],[45.9483,-24.9559],[46.2376,-25.1982]]]},"properties":{"name":"Androy","admin_level":"4","name_official":"Androy","region_code":"MG-androy"},"id":"MG-UAD"},{"type":"Feature","geometry":{"type":"Polygon","coordinates":[[[47.4281,-24.1248],[47.1261,-24.9343],[46.6537,-25.1839],[46.2376,-25.1982],[45.9483,-24.9559],[45.8481,-24.1041],[45.5182,-24.0092],[45.466,-23.5838],[45.2781,-23.5963],[45.4152,-22.8601],[45.8021,-22.6835],[46.2026,-22.8016],[46.4679,-23.1844],[46.4119,-23.801],[46.8694,-24.126],[47.4281,-24.1248]]]},"properties":{"name":"Anosy","admin_level":"4","name_official":"Anosy","region_code":"MG-anosy"},"id":"MG-UAY"},{"type":"Feature","geometry":{"type":"Polygon","coordinates":[[[47.8825,-22.5956],[47.5687,-23.8526],[47.4263,-24.1241],[46.8694,-24.126],[46.4119,-23.801],[46.8378,-23.6155],[46.8127,-23.0643],[47.2011,-23.1019],[47.0633,-22.1748],[47.8825,-22.5956]]]},"properties":{"name":"Atsimo-Atsinanana","admin_level":"4","name_official":"Atsimo-Atsinanana","region_code":"MG-atsimo-atsinanana"},"id":"MG-FAA"},{"type":"Feature","geometry":{"type":"Polygon","coordinates":[[[48.6162,-20.4198],[48.2018,-21.7962],[47.8825,-22.5956],[47.0633,-22.1748],[47.3263,-22.037],[47.4641,-20.8219],[48.175,-20.2216],[48.6162,-20.4198]]]},"properties":{"name":"Vatovavy-Fitovinany","admin_level":"4","name_official":"Vatovavy-Fitovinany","region_code":"MG-vatovavy-fitovinany"},"id":"MG-FVF"},{"type":"Feature","geometry":{"type":"Polygon","coordinates":[[[49.475,-17.5137],[49.3592,-18.424],[49.0769,-19.0656],[48.6162,-20.4198],[48.175,-20.2216],[48.0657,-20.4423],[47.679,-20.2719],[47.7723,-19.8844],[48.3035,-19.7946],[48.6668,-18.9678],[48.5666,-18.2537],[48.8171,-18.1535],[48.6543,-17.8779],[49.475,-17.5137]]]},"properties":{"name":"Atsinanana","admin_level":"4","name_official":"Atsinanana","region_code":"MG-atsinanana"},"id":"MG-AAI"},{"type":"Feature","geometry":{"type":"MultiPolygon","coordinates":[[[[49.9558,-16.7797],[49.9595,-16.7653],[49.9612,-16.7496],[49.9646,-16.7341],[49.9732,-16.7211],[49.9854,-16.7118],[50.0241,-16.6904],[50.0199,-16.7145],[49.9837,-16.7867],[49.9574,-16.864],[49.9085,-16.967],[49.8728,-17.0131],[49.8445,-17.0722],[49.8262,-17.0944],[49.8174,-17.0672],[49.8225,-17.0413],[49.8465,-16.9914],[49.8508,-16.9777],[49.853,-16.9648],[49.854,-16.9368],[49.8573,-16.9197],[49.8656,-16.9063],[49.8882,-16.8815],[49.9558,-16.7797]]],[[[50.1309,-15.9194],[49.9011,-15.4223],[49.6384,-15.5446],[49.8495,-16.5524],[49.2932,-17.6775],[48.8797,-17.7526],[48.7294,-17.5647],[48.9168,-16.6787],[49.2074,-16.1854],[49.0248,-15.3504],[49.3606,-15.2419],[49.468,-14.959],[49.9312,-15.0381],[50.1309,-15.9194]]]]},"properties":{"name":"Analanjirofo","admin_level":"4","name_official":"Analanjirofo","region_code":"MG-analanjirofo"},"id":"MG-AAN"},{"type":"Feature","geometry":{"type":"Polygon","coordinates":[[[49.6355,-12.6746],[49.9421,-13.0339],[50.1429,-13.7831],[50.2323,-14.7382],[50.4834,-15.4435],[50.1221,-15.9144],[49.9312,-15.0381],[49.7236,-15.0758],[49.0969,-14.1955],[49.3307,-13.9192],[49.4685,-12.9546],[49.6355,-12.6746]]]},"properties":{"name":"Sava","admin_level":"4","name_official":"Sava","region_code":"MG-sava"},"id":"MG-DSF"},{"type":"Feature","geometry":{"type":"MultiPolygon","coordinates":[[[[48.0311,-14.0636],[47.9656,-13.5208],[48.3274,-13.78],[48.7474,-13.4116],[48.9553,-12.8117],[48.887,-12.5646],[49.26,-11.9436],[49.6355,-12.6746],[49.4685,-12.9546],[49.3307,-13.9192],[49.0969,-14.1955],[48.0311,-14.0636]]],[[[48.332,-13.3604],[48.3394,-13.3683],[48.3533,-13.3774],[48.365,-13.388],[48.3662,-13.4006],[48.3595,-13.408],[48.3496,-13.4124],[48.3284,-13.4151],[48.3235,-13.4128],[48.3184,-13.4006],[48.298,-13.4081],[48.2617,-13.4024],[48.2493,-13.3969],[48.2359,-13.3871],[48.229,-13.3871],[48.229,-13.4006],[48.216,-13.3946],[48.2063,-13.3826],[48.1997,-13.3615],[48.195,-13.3188],[48.1989,-13.2994],[48.2044,-13.2823],[48.2039,-13.2698],[48.1887,-13.2643],[48.1989,-13.2511],[48.2136,-13.2553],[48.2293,-13.2623],[48.2428,-13.2568],[48.2495,-13.263],[48.259,-13.2673],[48.2692,-13.2683],[48.2769,-13.2643],[48.2782,-13.2565],[48.2671,-13.2411],[48.2638,-13.2331],[48.2647,-13.2126],[48.2693,-13.2011],[48.2804,-13.1964],[48.301,-13.1954],[48.3184,-13.2003],[48.3264,-13.2128],[48.3255,-13.2296],[48.315,-13.2468],[48.3237,-13.2519],[48.3338,-13.2724],[48.3412,-13.2947],[48.3421,-13.3053],[48.3542,-13.3123],[48.3488,-13.3288],[48.3377,-13.3473],[48.332,-13.3604]]]]},"properties":{"name":"Diana","admin_level":"4","name_official":"Diana","region_code":"MG-diana"},"id":"MG-DDI"},{"type":"Feature","geometry":{"type":"Polygon","coordinates":[[[47.1476,-15.4465],[47.0579,-15.2162],[47.4588,-14.6616],[47.4824,-15.0803],[47.907,-14.0997],[48.9708,-14.1434],[49.3939,-14.4933],[49.5859,-14.9411],[49.0248,-15.3504],[49.2074,-16.1854],[48.9821,-16.6632],[48.6824,-16.7566],[48.5769,-16.4172],[47.9809,-16.2517],[47.9168,-16.5149],[47.3389,-16.2994],[47.1476,-15.4465]]]},"properties":{"name":"Sofia","admin_level":"4","name_official":"Sofia","region_code":"MG-sofia"},"id":"MG-MSF"},{"type":"Feature","geometry":{"type":"Polygon","coordinates":[[[44.8778,-16.2092],[45.2664,-15.9239],[45.6218,-16.0324],[45.6939,-15.7831],[46.219,-15.7067],[46.9714,-15.1984],[47.1476,-15.4465],[47.3514,-16.6252],[46.7045,-16.6094],[46.5872,-16.9509],[46.2364,-17.239],[46.0109,-16.9885],[45.4973,-16.9759],[45.0213,-16.5249],[44.8778,-16.2092]]]},"properties":{"name":"Boeny","admin_level":"4","name_official":"Boeny","region_code":"MG-boeny"},"id":"MG-MBO"}]}